$$SOE
2459580.500000000, A.D. 2022-Jan-01 00:00:00.0000, -3.386451516700138E+07, -1.904026266497612E+08, -6.843183082158893E+06,
2459587.500000000, A.D. 2022-Jan-08 00:00:00.0000, -2.111227877241545E+07, -1.994988823486806E+08, -8.673867371151328E+06,
2459594.500000000, A.D. 2022-Jan-15 00:00:00.0000, -8.231933014798548E+06, -2.073985825812855E+08, -1.045268068256865E+07,
2459601.500000000, A.D. 2022-Jan-22 00:00:00.0000, 4.694154100897135E+06, -2.141762081863347E+08, -1.217506616322346E+07,
2459608.500000000, A.D. 2022-Jan-29 00:00:00.0000, 1.759816159780303E+07, -2.199009858883795E+08, -1.383770257319979E+07,
2459615.500000000, A.D. 2022-Feb-05 00:00:00.0000, 3.042386413370639E+07, -2.246368538630965E+08, -1.543819360471328E+07,
2459622.500000000, A.D. 2022-Feb-12 00:00:00.0000, 4.312431241294200E+07, -2.284426593487417E+08, -1.697483597418484E+07,
2459629.500000000, A.D. 2022-Feb-19 00:00:00.0000, 5.566000585186560E+07, -2.313724749078155E+08, -1.844644545083623E+07,
2459636.500000000, A.D. 2022-Feb-26 00:00:00.0000, 6.799744683097416E+07, -2.334759673899995E+08, -1.985222568019553E+07,
2459643.500000000, A.D. 2022-Mar-05 00:00:00.0000, 8.010799153062317E+07, -2.347987810201368E+08, -2.119166881795575E+07,
2459650.500000000, A.D. 2022-Mar-12 00:00:00.0000, 9.196693176615520E+07, -2.353829124137384E+08, -2.246447989954942E+07,
2459657.500000000, A.D. 2022-Mar-19 00:00:00.0000, 1.035527571948520E+08, -2.352670655804709E+08, -2.367051899525630E+07,
2459664.500000000, A.D. 2022-Mar-26 00:00:00.0000, 1.148465588605733E+08, -2.344869812688196E+08, -2.480975675890858E+07,
2459671.500000000, A.D. 2022-Apr-02 00:00:00.0000, 1.258315440074863E+08, -2.330757387879417E+08, -2.588224012326415E+07,
2459678.500000000, A.D. 2022-Apr-09 00:00:00.0000, 1.364926391024824E+08, -2.310640305612929E+08, -2.688806573956279E+07,
2459685.500000000, A.D. 2022-Apr-16 00:00:00.0000, 1.468161632703190E+08, -2.284804102202575E+08, -2.782735932152078E+07,
2459692.500000000, A.D. 2022-Apr-23 00:00:00.0000, 1.567895566799827E+08, -2.253515152156314E+08, -2.870025931681004E+07,
2459699.500000000, A.D. 2022-Apr-30 00:00:00.0000, 1.664011508593925E+08, -2.217022685009547E+08, -2.950690387666336E+07,
2459706.500000000, A.D. 2022-May-07 00:00:00.0000, 1.756399751880009E+08, -2.175560636162235E+08, -3.024742077055104E+07,
2459713.500000000, A.D. 2022-May-14 00:00:00.0000, 1.844955939465946E+08, -2.129349324249812E+08, -3.092191951391163E+07,
2459720.500000000, A.D. 2022-May-21 00:00:00.0000, 1.929579662758360E+08, -2.078596969025934E+08, -3.153048498727942E+07,
2459727.500000000, A.D. 2022-May-28 00:00:00.0000, 2.010173240450897E+08, -2.023501079242722E+08, -3.207317221436760E+07,
2459734.500000000, A.D. 2022-Jun-04 00:00:00.0000, 2.086640642697048E+08, -1.964249732086912E+08, -3.255000207038195E+07,
2459741.500000000, A.D. 2022-Jun-11 00:00:00.0000, 2.158886532693951E+08, -1.901022761518030E+08, -3.296095772371246E+07,
2459748.500000000, A.D. 2022-Jun-18 00:00:00.0000, 2.226815401641830E+08, -1.833992871826922E+08, -3.330598165255784E+07,
2459755.500000000, A.D. 2022-Jun-25 00:00:00.0000, 2.290330776760466E+08, -1.763326692185035E+08, -3.358497311276650E+07,
2459762.500000000, A.D. 2022-Jul-02 00:00:00.0000, 2.349334486151320E+08, -1.689185787282775E+08, -3.379778596916363E+07,
2459769.500000000, A.D. 2022-Jul-09 00:00:00.0000, 2.403725969486926E+08, -1.611727636048195E+08, -3.394422682869273E+07,
2459776.500000000, A.D. 2022-Jul-16 00:00:00.0000, 2.453401621224978E+08, -1.531106581223789E+08, -3.402405332086464E+07,
2459783.500000000, A.D. 2022-Jul-23 00:00:00.0000, 2.498254133172096E+08, -1.447474762823022E+08, -3.403697227502421E+07,
2459790.500000000, A.D. 2022-Jul-30 00:00:00.0000, 2.538171827177623E+08, -1.360983083164307E+08, -3.398263804833245E+07,
2459797.500000000, A.D. 2022-Aug-06 00:00:00.0000, 2.573038004865804E+08, -1.271782211877501E+08, -3.386065126826698E+07,
2459804.500000000, A.D. 2022-Aug-13 00:00:00.0000, 2.602730297933220E+08, -1.180023619466624E+08, -3.367055769186299E+07,
2459811.500000000, A.D. 2022-Aug-20 00:00:00.0000, 2.627119995689353E+08, -1.085860662336369E+08, -3.341184709820341E+07,
2459818.500000000, A.D. 2022-Aug-27 00:00:00.0000, 2.646071343352868E+08, -9.894497466943410E+07, -3.308395231608722E+07,
2459825.500000000, A.D. 2022-Sep-03 00:00:00.0000, 2.659440806808269E+08, -8.909515955031639E+07, -3.268624847320795E+07,
2459832.500000000, A.D. 2022-Sep-10 00:00:00.0000, 2.667076298364267E+08, -7.905326449942091E+07, -3.221805254867092E+07,
2459839.500000000, A.D. 2022-Sep-17 00:00:00.0000, 2.668816358050335E+08, -6.883666021114650E+07, -3.167862333532449E+07,
2459846.500000000, A.D. 2022-Sep-24 00:00:00.0000, 2.664489286303125E+08, -5.846362005707698E+07, -3.106716196784021E+07,
2459853.500000000, A.D. 2022-Oct-01 00:00:00.0000, 2.653912227222782E+08, -4.795352004073586E+07, -3.038281324862976E+07,
2459860.500000000, A.D. 2022-Oct-08 00:00:00.0000, 2.636890205503277E+08, -3.732706799288255E+07, -2.962466805622361E+07,
2459867.500000000, A.D. 2022-Oct-15 00:00:00.0000, 2.613215110259211E+08, -2.660656743107944E+07, -2.879176704818615E+07,
2459874.500000000, A.D. 2022-Oct-22 00:00:00.0000, 2.582664611462995E+08, -1.581622593897276E+07, -2.788310612744959E+07,
2459881.500000000, A.D. 2022-Oct-29 00:00:00.0000, 2.545001048493083E+08, -4.982520754518068E+06, -2.689764481914325E+07,
2459888.500000000, A.D. 2022-Nov-05 00:00:00.0000, 2.499970337166339E+08, 5.865368671108432E+06, -2.583431847401600E+07,
2459895.500000000, A.D. 2022-Nov-12 00:00:00.0000, 2.447300917588252E+08, 1.669504683984861E+07, -2.469205530221039E+07,
2459902.500000000, A.D. 2022-Nov-19 00:00:00.0000, 2.386702802302057E+08, 2.747028667616406E+07, -2.346980000828498E+07,
2459909.500000000, A.D. 2022-Nov-26 00:00:00.0000, 2.317866830805531E+08, 3.815028751212893E+07, -2.216654649698316E+07,
2459916.500000000, A.D. 2022-Dec-03 00:00:00.0000, 2.240464290467389E+08, 4.868877600458570E+07, -2.078138299162551E+07,
2459923.500000000, A.D. 2022-Dec-10 00:00:00.0000, 2.154147144865930E+08, 5.903291174865792E+07, -1.931355417325758E+07,
2459930.500000000, A.D. 2022-Dec-17 00:00:00.0000, 2.058549233657742E+08, 6.912194994111757E+07, -1.776254675193004E+07,
2459937.500000000, A.D. 2022-Dec-24 00:00:00.0000, 1.953288994339345E+08, 7.888560236028649E+07, -1.612820743571847E+07,
2459944.500000000, A.D. 2022-Dec-31 00:00:00.0000, 1.837974538049513E+08, 8.824202584727046E+07, -1.441090586368668E+07,
2459951.500000000, A.D. 2023-Jan-07 00:00:00.0000, 1.712212329418203E+08, 9.709535638121790E+07, -1.261176002617075E+07,
2459958.500000000, A.D. 2023-Jan-14 00:00:00.0000, 1.575621330606290E+08, 1.053326986131122E+08, -1.073294856538174E+07,
2459965.500000000, A.D. 2023-Jan-21 00:00:00.0000, 1.427855426402203E+08, 1.128204816986746E+08, -8.778144390531167E+06,
2459972.500000000, A.D. 2023-Jan-28 00:00:00.0000, 1.268638374958789E+08, 1.194001290748372E+08, -6.753116835535742E+06,
2459979.500000000, A.D. 2023-Feb-04 00:00:00.0000, 1.097817462107488E+08, 1.248830896725217E+08, -4.666564324116774E+06,
2459986.500000000, A.D. 2023-Feb-11 00:00:00.0000, 9.154446735368451E+07, 1.290454970411875E+08, -2.531255244267330E+06,
2459993.500000000, A.D. 2023-Feb-18 00:00:00.0000, 7.218973650702158E+07, 1.316231812559109E+08, -3.655628342036828E+05,
2460000.500000000, A.D. 2023-Feb-25 00:00:00.0000, 5.180530606450122E+07, 1.323086336928996E+08, 1.804540181243449E+06,
2460007.500000000, A.D. 2023-Mar-04 00:00:00.0000, 3.055321653553239E+07, 1.307530477776988E+08, 3.943053371935360E+06,
2460014.500000000, A.D. 2023-Mar-11 00:00:00.0000, 8.701106962974785E+06, 1.265788713783091E+08, 6.001357481143050E+06,
2460021.500000000, A.D. 2023-Mar-18 00:00:00.0000, -1.334265440110867E+07, 1.194109576910421E+08, 7.916238674838126E+06,
2460028.500000000, A.D. 2023-Mar-25 00:00:00.0000, -3.500057169981980E+07, 1.089352320312101E+08, 9.610120506139435E+06,
2460035.500000000, A.D. 2023-Apr-01 00:00:00.0000, -5.552568051650036E+07, 9.498771881577903E+07, 1.099589303023749E+07,
2460042.500000000, A.D. 2023-Apr-08 00:00:00.0000, -7.405749981094836E+07, 7.765773836555459E+07, 1.198840678346389E+07,
2460049.500000000, A.D. 2023-Apr-15 00:00:00.0000, -8.974914490126348E+07, 5.736052272231807E+07, 1.252173652197864E+07,
2460056.500000000, A.D. 2023-Apr-22 00:00:00.0000, -1.019367158197303E+08, 3.482253137581558E+07, 1.256609733838734E+07,
2460063.500000000, A.D. 2023-Apr-29 00:00:00.0000, -1.102756060109550E+08, 1.095993081341749E+07, 1.213546759492151E+07,
2460070.500000000, A.D. 2023-May-06 00:00:00.0000, -1.147748620794656E+08, -1.329908435872414E+07, 1.128148097532455E+07,
2460077.500000000, A.D. 2023-May-13 00:00:00.0000, -1.157265073808077E+08, -3.716368653495384E+07, 1.007787460470541E+07,
2460084.500000000, A.D. 2023-May-20 00:00:00.0000, -1.135856209524889E+08, -6.005161317157336E+07, 8.604055313105186E+06,
2460091.500000000, A.D. 2023-May-27 00:00:00.0000, -1.088603811337410E+08, -8.158840035719906E+07, 6.933638103175849E+06,
2460098.500000000, A.D. 2023-Jun-03 00:00:00.0000, -1.020394885188875E+08, -1.015681327473778E+08, 5.128996617337041E+06,
2460105.500000000, A.D. 2023-Jun-10 00:00:00.0000, -9.355622546882918E+07, -1.199052299439890E+08, 3.240135801557571E+06,
2460112.500000000, A.D. 2023-Jun-17 00:00:00.0000, -8.377736052421100E+07, -1.365925970040920E+08, 1.305816067899249E+06,
2460119.500000000, A.D. 2023-Jun-24 00:00:00.0000, -7.300539191691323E+07, -1.516705610383445E+08, -6.445161287257224E+05,
2460126.500000000, A.D. 2023-Jul-01 00:00:00.0000, -6.148643708241908E+07, -1.652057665275772E+08, -2.588750699639916E+06,
2460133.500000000, A.D. 2023-Jul-08 00:00:00.0000, -4.941956596497685E+07, -1.772776320072663E+08, -4.510397855963349E+06,
2460140.500000000, A.D. 2023-Jul-15 00:00:00.0000, -3.696563152848372E+07, -1.879700309677449E+08, -6.397209731785819E+06,
2460147.500000000, A.D. 2023-Jul-22 00:00:00.0000, -2.425487458278973E+07, -1.973663942390334E+08, -8.240117084096611E+06,
$$EOE